C/2020 N2 (ATLAS),e,161.0387,257.1792,331.2003,101.3149,0.0009665,0.98239378,0.0000,08/24.3128/2020,2000,g 16.0,3.2
# From MPEC 2024-JU4
C/2020 O2 (Amaral),e,71.7623,256.7912,10.1724,11707,0.0000008,0.99958516,0.0000,08/27.2633/2021,2000,g  8.0,3.2
# From MPEC 2023-C45
P/2020 O3 (PANSTARRS),e,8.4445,266.8178,81.1924,4.646146,0.0984158,0.10241428,160.5260,07/14.0/2025,2000,g 12.0,4.0
# From MPEC 2021-BE3
C/2020 P1 (NEOWISE),h,10/21.2166/2020,45.1098,53.4882,8.9335,1.000438,0.341830,2000,14.0,3.2
# From MPEC 2024-JU4
C/2020 P3 (ATLAS),h,04/22.9412/2021,61.8547,19.4844,82.3504,1.003711,6.816132,2000,6.0,4.0
# From MPEC 2022-PB4
C/2020 PV6 (PANSTARRS),e,128.1535,329.1281,71.2800,41.65056,0.0036667,0.94499376,5.0864,07/14.0/2025,2000,g 10.0,4.0
# From MPEC 2022-L66
C/2020 Q1 (Borisov),e,142.9223,52.4125,10.0296,62.36548,0.0020012,0.97884434,0.0000,08/15.3277/2020,2000,g 14.0,4.0
# From MPEC 2023-CD7
C/2020 Q2 (PANSTARRS),e,3.3358,179.8275,118.2040,10.60175,0.0285521,0.48881177,57.0256,07/14.0/2025,2000,g 12.0,3.2
# From MPEC 2024-F34
C/2020 R2 (PANSTARRS),e,53.2152,195.1274,211.8850,430.4238,0.0001104,0.98908193,0.0000,02/25.3546/2022,2000,g  9.0,4.0
# From MPEC 2022-K19
C/2020 R4 (ATLAS),e,164.4033,323.2328,46.5113,97.19572,0.0010286,0.98949946,0.0000,03/02.2016/2021,2000,g 13.5,4.0
# From MPEC 2023-C45
P/2020 R5 (PANSTARRS),e,11.4394,272.9381,82.7538,4.993354,0.0883315,0.31311188,165.4978,07/14.0/2025,2000,g  9.5,6.0
# From MPEC 2021-Y10
C/2020 R6 (Rankin),e,82.8926,12.2365,271.9978,290.9048,0.0001986,0.98920792,0.0000,09/06.8141/2019,2000,g 11.0,4.0
# From MPEC 2024-PC5
C/2020 R7 (ATLAS),e,114.9031,268.3099,347.7594,8090,0.0000014,0.99963514,0.0000,09/16.0302/2022,2000,g  7.0,3.2
# From MPEC 2021-BE3
P/2020 S1 (PANSTARRS),e,13.7147,129.4903,255.1649,6.002033,0.0670280,0.50684385,109.8664,07/14.0/2025,2000,g 14.0,4.0
# From MPEC 2022-ST7
C/2020 S2 (PANSTARRS),e,22.3743,197.7096,202.4259,10.25107,0.0300296,0.82792598,49.9985,07/14.0/2025,2000,g 17.0,4.0
# From MPEC 2024-JU4
C/2020 S3 (Erasmus),e,20.0674,222.5166,350.0483,141.2587,0.0005871,0.99722119,0.0000,12/11.3718/2020,2000,g 13.5,3.2
# From MPEC 2024-N80
C/2020 S4 (PANSTARRS),h,02/09.5873/2023,20.5702,117.6821,21.0610,1.002757,3.370459,2000,8.5,3.2
# From MPEC 2021-BE3
P/2020 S5 (PANSTARRS),e,12.3401,316.0199,53.2759,4.058505,0.1205466,0.33732095,217.1114,07/14.0/2025,2000,g 14.5,4.0
# From MPEC 2021-BE3
P/2020 S7 (PANSTARRS),e,16.0700,328.0824,40.6636,5.036840,0.0871900,0.40948710,148.1786,07/14.0/2025,2000,g 14.5,4.0
# From MPEC 2021-P47
C/2020 S8 (Lemmon),e,108.5440,24.0069,160.1277,238.9503,0.0002668,0.99014187,0.0000,04/10.3524/2021,2000,g 12.5,4.0
# From MPEC 2022-TD3
C/2020 T2 (Palomar),e,27.8397,83.0334,150.3440,268.9630,0.0002234,0.99236949,0.0000,07/10.5639/2021,2000,g 11.0,3.2
# From MPEC 2021-N06
P/2020 T3 (PANSTARRS),e,7.2985,73.9917,357.0811,3.516060,0.1494926,0.59243603,244.2242,07/14.0/2025,2000,g 18.0,3.2
# From MPEC 2021-N06
C/2020 T4 (PANSTARRS),h,07/06.1072/2021,83.8271,50.6064,79.5695,1.000653,2.187548,2000,13.0,3.2
# From MPEC 2021-BE3
C/2020 T5 (Lemmon),e,66.5580,237.8441,90.3845,605.9438,0.0000661,0.99686768,0.0000,10/07.7074/2020,2000,g 16.0,4.0
# From MPEC 2021-N06
P/2020 U2 (PANSTARRS),e,6.4198,342.8154,84.7730,3.777854,0.1342259,0.51133425,222.7562,07/14.0/2025,2000,g 18.0,4.0
# From MPEC 2021-W31
C/2020 U3 (Rankin),e,30.1387,282.5994,124.5180,67.67049,0.0017705,0.96622111,2.8665,07/14.0/2025,2000,g 15.0,4.0
# From MPEC 2024-TD8
C/2020 U4 (PANSTARRS),h,04/10.0236/2022,167.0033,120.4058,70.1759,1.001237,5.361951,2000,7.0,4.0
# From MPEC 2024-GJ3
C/2020 U5 (PANSTARRS),e,97.3125,107.3132,75.4665,11498,0.0000008,0.99967327,0.0000,04/28.3920/2022,2000,g  8.0,4.0
# From MPEC 2025-N86
C/2020 V2 (ZTF),h,05/08.5278/2023,131.6121,212.4005,162.4596,1.001065,2.229337,2000,4.9,4.0
# From MPEC 2023-D72
P/2020 V3 (PANSTARRS),e,23.0208,198.2692,249.8096,8.408206,0.0404249,0.25788541,65.0547,07/14.0/2025,2000,g  8.3,4.0
# From MPEC 2024-F34
P/2020 V4 (Rankin),e,14.2367,203.4888,257.2555,9.398457,0.0342073,0.45160017,49.7468,07/14.0/2025,2000,g  9.0,4.0
# From MPEC 2021-BE3
P/2020 W1 (Rankin),e,10.7771,124.3858,265.3963,7.226113,0.0507396,0.26544864,97.4546,07/14.0/2025,2000,g 10.0,4.0
# From MPEC 2021-BE3
C/2020 W5 (Lemmon),h,11/30.9420/2020,88.6153,75.4674,24.6082,1.002174,3.370972,2000,15.0,4.0
# From MPEC 2024-PC5
P/2020 WJ5 (Lemmon),e,22.2882,177.7628,338.0880,6.015530,0.0668026,0.17214052,98.4951,07/14.0/2025,2000,g  8.5,4.0
# From MPEC 2024-F34
P/2020 X1 (ATLAS),e,31.6915,55.9879,323.5277,4.536260,0.1020134,0.36438119,185.6712,07/14.0/2025,2000,g 13.0,4.0
# From MPEC 2024-A43
C/2020 X2 (ATLAS),e,18.1867,105.3554,347.5728,16.54278,0.0146484,0.76832964,24.8994,07/14.0/2025,2000,g 10.6,4.0
# From MPEC 2021-S45
C/2020 X4 (Leonard),e,80.6588,161.9559,140.2906,40.58311,0.0038123,0.87127663,6.4869,07/14.0/2025,2000,g  9.0,4.0
# From MPEC 2024-YC7
C/2020 Y2 (ATLAS),e,101.2139,26.5396,266.4147,1268,0.0000218,0.99751773,0.0000,06/17.7613/2022,2000,g  6.5,4.0
# From MPEC 2021-R75
C/2020 Y3 (ATLAS),e,83.1447,191.3430,341.8499,137.4780,0.0006114,0.98552309,0.0000,12/03.2273/2020,2000,g 13.5,4.0
# From MPEC 2025-A40
C/2021 A1 (Leonard),h,01/03.8259/2022,132.7535,255.9110,225.1360,1.000246,0.615330,2000,8.5,4.0
# From MPEC 2025-A40
C/2021 A2 (NEOWISE),e,107.0555,125.0603,338.8008,229.5191,0.0002834,0.99382898,0.0000,01/21.8650/2021,2000,g 13.5,4.0
# From MPEC 2022-ED3
C/2021 A4 (NEOWISE),e,111.6493,307.0893,204.7548,42.53205,0.0035533,0.97295233,0.0000,03/19.5823/2021,2000,g 16.0,4.0
# From MPEC 2021-BE3
P/2021 A5 (PANSTARRS),e,18.1895,328.8096,61.5403,3.046344,0.1853684,0.13978830,315.4567,07/14.0/2025,2000,g 15.0,4.0
# From MPEC 2024-P23
C/2021 A6 (PANSTARRS),e,75.5632,164.0242,351.6266,12336,0.0000007,0.99935761,0.0000,05/03.0848/2021,2000,g  7.0,4.0
# From MPEC 2022-M88
C/2021 A7 (NEOWISE),e,78.2195,154.4002,356.0017,1891,0.0000120,0.99896064,0.0000,07/15.1609/2021,2000,g 10.0,4.0
# From MPC182879
C/2021 A9 (PANSTARRS),h,12/04.0170/2023,158.0181,314.8537,211.6397,1.000018,7.763933,2000,6.0,4.0
# From MPEC 2021-N06
C/2021 A10 (NEOWISE),e,151.9962,188.8431,82.6491,89.72317,0.0011597,0.98588009,0.0000,03/14.7115/2021,2000,g 19.0,4.0
# From MPEC 2022-L66
C/2021 B2 (PANSTARRS),e,38.0872,120.4372,335.1220,409.3849,0.0001190,0.99385639,0.0000,05/04.8541/2021,2000,g 14.0,4.0
# From MPEC 2021-N06
C/2021 B3 (NEOWISE),e,119.4779,67.2832,293.6063,34.22264,0.0049230,0.93663594,7.8165,07/14.0/2025,2000,g 13.5,4.0
# From MPEC 2023-KD6
C/2021 C1 (Rankin),e,143.0431,186.8254,336.0564,1809,0.0000128,0.99807974,0.0000,12/05.6981/2020,2000,g 11.5,4.0
# From MPEC 2021-U31
P/2021 C2 (PANSTARRS),e,21.9381,66.4553,78.7242,9.545863,0.0334181,0.48839390,53.4801,07/14.0/2025,2000,g 12.0,4.0
# From MPEC 2024-M41
C/2021 C3 (Catalina),e,122.2094,181.8504,356.9745,60.41176,0.0020990,0.96235519,3.3877,07/14.0/2025,2000,g 14.0,4.0
# From MPEC 2022-M88
C/2021 C4 (ATLAS),e,132.8310,194.2271,320.0226,3706,0.0000044,0.99878758,0.0000,01/16.1446/2021,2000,g  9.0,4.0
# From MPEC 2024-N80
C/2021 C5 (PANSTARRS),e,50.8031,323.6736,270.8881,1702,0.0000140,0.99809604,0.0000,02/10.9798/2023,2000,g  9.0,4.0
# From MPEC 2022-YB4
C/2021 C6 (Lemmon),e,164.6093,332.3255,203.8625,2694,0.0000070,0.99878060,0.0000,11/11.8752/2021,2000,g 12.0,4.0
# From MPEC 2022-F14
C/2021 D1 (SWAN),e,31.3544,311.1597,72.4647,102.0314,0.0009563,0.99109797,0.0000,02/27.3223/2021,2000,g 13.0,4.0
# From MPEC 2023-J29
C/2021 D2 (ZTF),h,02/03.6323/2022,83.7712,305.6270,125.0689,1.001425,2.949683,2000,9.0,4.0
# From MPEC 2022-UY9
A/2021 E2,e,167.4939,190.7485,342.2169,199.9704,0.0003485,0.98858312,0.0000,12/08.9003/2020,2000,g 15.0,2.0
# From MPEC 2024-GJ3
C/2021 E3 (ZTF),e,112.5245,104.4839,228.7990,10083,0.0000010,0.99982371,0.0000,06/11.1018/2022,2000,g  8.5,4.0
# From MPEC 2024-N80
A/2021 E4,e,116.3824,171.1404,48.2837,504.1337,0.0000871,0.99071682,0.0000,04/24.8263/2022,2000,g 13.5,2.0
# From MPEC 2022-QD9
C/2021 F1 (Lemmon-PANSTARRS),e,107.2897,203.5519,146.9476,248.5682,0.0002515,0.99597979,0.0000,04/06.7364/2022,2000,g 13.5,4.0
# From MPEC 2021-J72
C/2021 G1 (Leonard),e,131.5467,270.6975,107.4356,71.03726,0.0016462,0.95174358,2.3947,07/14.0/2025,2000,g 14.0,4.0
# From MPEC 2025-N86
C/2021 G2 (ATLAS),h,09/09.1343/2024,48.4665,221.0945,343.2663,1.000742,4.982263,2000,5.5,4.0
# From MPEC 2022-X67
C/2021 G3 (PANSTARRS),e,102.8731,147.3443,10.5991,8834,0.0000012,0.99941333,0.0000,10/17.8547/2021,2000,g 10.5,4.0
# From MPEC 2021-Y10
P/2021 HS (PANSTARRS),e,12.1541,262.3567,46.1177,4.193334,0.1147797,0.80945625,165.2013,07/14.0/2025,2000,g 22.0,4.0
# From MPEC 2022-C56
C/2021 J1 (Maury-Attard),e,92.7075,88.4326,147.1951,26.19324,0.0073522,0.93381062,11.8046,07/14.0/2025,2000,g 15.5,4.0
# From MPEC 2023-XP6
C/2021 J2 (PANSTARRS),e,156.2116,23.3086,171.8815,111.6807,0.0008351,0.95790228,1.1627,07/14.0/2025,2000,g 12.0,4.0
# From MPEC 2024-F34
P/2021 J3 (ATLAS),e,14.5147,110.9952,125.6240,8.889232,0.0371884,0.44942275,82.0266,07/14.0/2025,2000,g  7.0,4.0
# From MPEC 2022-O08
C/2021 K1 (ATLAS),e,16.2711,140.9242,184.2220,12.60347,0.0220277,0.80146411,33.7838,07/14.0/2025,2000,g 11.0,4.0
# From MPEC 2022-O01
C/2021 K2 (MASTER),h,09/09.2285/2021,100.8714,282.3381,343.2745,1.000433,5.463492,2000,8.0,4.0
# From MPEC 2022-L66
C/2021 K3 (Catalina),h,02/03.6297/2022,134.7805,114.6090,182.0112,1.004173,5.227441,2000,10.0,4.0
# From MPEC 2021-W31
P/2021 L2 (Leonard),e,21.0643,266.6524,51.4288,4.047400,0.1210431,0.52084117,175.7801,07/14.0/2025,2000,g 17.0,4.0
# From MPEC 2024-H50
C/2021 L3 (Borisov),h,02/15.0000/2022,78.5371,345.0177,91.6519,1.004539,8.460371,2000,6.0,4.0
# From MPEC 2022-TA0
P/2021 N1 (ZTF),e,11.4855,301.1347,21.2253,2.979828,0.1916096,0.67572754,287.4094,07/14.0/2025,2000,g 19.0,4.0
# From MPEC 2024-GJ3
P/2021 N2 (Fuls),e,13.0600,221.7436,177.6318,6.946919,0.0538289,0.45211932,72.0154,07/14.0/2025,2000,g  9.5,4.0
# From MPEC 2022-YB4
